[{"OBJECT_NAME":"STARLINK-32359","OBJECT_ID":"2024-209U","EPOCH":"2026-03-09T11:30:05.179104","MEAN_MOTION":15.3019085,"ECCENTRICITY":0.00011793,"INCLINATION":53.1574,"RA_OF_ASC_NODE":143.4521,"ARG_OF_PERICENTER":110.0444,"MEAN_ANOMALY":250.0684,"EPHEMERIS_TYPE":0,"CLASSIFICATION_TYPE":"U","NORAD_CAT_ID":61957,"ELEMENT_SET_NO":999,"REV_AT_EPOCH":7488,"BSTAR":0.00048615343,"MEAN_MOTION_DOT":0.00014063,"MEAN_MOTION_DDOT":0},{"OBJECT_NAME":"NUSHSAT1","OBJECT_ID":"2025-052B","EPOCH":"2026-03-09T15:31:41.225952","MEAN_MOTION":15.31903202,"ECCENTRICITY":0.0005501,"INCLINATION":97.4095,"RA_OF_ASC_NODE":325.7239,"ARG_OF_PERICENTER":84.7512,"MEAN_ANOMALY":275.4357,"EPHEMERIS_TYPE":0,"CLASSIFICATION_TYPE":"U","NORAD_CAT_ID":63211,"ELEMENT_SET_NO":999,"REV_AT_EPOCH":5488,"BSTAR":0.00074857,"MEAN_MOTION_DOT":0.00023034,"MEAN_MOTION_DDOT":0}]
